NORAD_CAT_ID,OBJECT_NAME,OBJECT_TYPE,EPOCH,MEAN_MOTION,ECCENTRICITY,INCLINATION,RA_OF_ASC_NODE,ARG_OF_PERICENTER,MEAN_ANOMALY,BSTAR,MEAN_MOTION_DOT,MEAN_MOTION_DDOT,TLE_LINE0,TLE_LINE1,TLE_LINE2,SEMIMAJOR_AXIS,PERIOD,APOGEE,PERIGEE,DECAYED
51973.0,STARLINK-3679,PAYLOAD,2022-09-26 08:20:12,15.08833503,0.0001906999999999,53.217,287.0052,45.8988,314.216,2.9822e-05,1.86e-06,0.0,0 STARLINK-3679,1 51973U 22025T   22269.34736236  .00000186  00000-0  29822-4 0  9993,2 51973  53.2170 287.0052 0001907  45.8988 314.2160 15.08833503 30936,6917.9,95.438,541.0840000000002,538.446,0.0
51973.0,STARLINK-3679,PAYLOAD,2022-09-26 17:52:31,15.08829203,0.0001784,53.2176,285.2228,46.4344,313.6796,-5.7322e-05,-1.2e-05,0.0,0 STARLINK-3679,1 51973U 22025T   22269.74481000 -.00001200  00000-0 -57322-4 0  9999,2 51973  53.2176 285.2228 0001784  46.4344 313.6796 15.08829203 32081,6917.913000000001,95.438,541.013,538.544,0.0
51973.0,STARLINK-3679,PAYLOAD,2022-09-26 22:38:40,15.08834328,0.0001889999999999,53.2172,284.3287,41.4908,318.6227,-9.7775e-05,-1.844e-05,0.0,0 STARLINK-3679,1 51973U 22025T   22269.94352897 -.00001844  00000-0 -97775-4 0  9992,2 51973  53.2172 284.3287 0001890  41.4908 318.6227 15.08834328 31022,6917.898,95.438,541.07,538.455,0.0
51973.0,STARLINK-3679,PAYLOAD,2022-09-27 17:43:17,15.08841935,0.0001872,53.2174,280.7615,44.503,315.6112,1.8753e-05,1e-07,0.0,0 STARLINK-3679,1 51973U 22025T   22270.73840121  .00000010  00000-0  18753-4 0  9994,2 51973  53.2174 280.7615 0001872  44.5030 315.6112 15.08841935 32235,6917.874,95.437,541.035,538.444,0.0
51973.0,STARLINK-3679,PAYLOAD,2022-09-28 04:50:58,15.08864619,0.000192,53.217,278.67900000000003,38.7045,321.4085,-8.4547e-05,-1.634e-05,0.0,0 STARLINK-3679,1 51973U 22025T   22271.20206934 -.00001634  00000-0 -84547-4 0  9994,2 51973  53.2170 278.6790 0001920  38.7045 321.4085 15.08864619 32302,6917.805,95.436,540.998,538.342,0.0
51973.0,STARLINK-3679,PAYLOAD,2022-09-28 09:37:08,15.08848075,0.0002521,53.2185,277.7871,32.47,327.6447,0.00011838,1.597e-05,0.0,0 STARLINK-3679,1 51973U 22025T   22271.40079570  .00001597  00000-0  11838-3 0  9998,2 51973  53.2185 277.7871 0002521  32.4700 327.6447 15.08848075 32336,6917.856,95.437,541.465,537.977,0.0
51973.0,STARLINK-3679,PAYLOAD,2022-09-29 01:31:01,15.08832517,0.0001802,53.2175,274.8135,48.1814,311.9332,5.8037e-05,6.36e-06,0.0,0 STARLINK-3679,1 51973U 22025T   22272.06320853  .00000636  00000-0  58037-4 0  9990,2 51973  53.2175 274.8135 0001802  48.1814 311.9332 15.08832517 32431,6917.903,95.438,541.015,538.5219999999998,0.0
51973.0,STARLINK-3679,PAYLOAD,2022-09-29 07:52:34,15.08830109,0.0001851999999999,53.2169,273.6237,47.5104,312.6044,3.505e-05,2.7000000000000004e-06,0.0,0 STARLINK-3679,1 51973U 22025T   22272.32817290  .00000270  00000-0  35050-4 0  9999,2 51973  53.2169 273.6237 0001852  47.5104 312.6044 15.08830109 31380,6917.911,95.438,541.057,538.494,0.0
51973.0,STARLINK-3679,PAYLOAD,2022-09-29 17:24:52,15.08839086,0.0001908,53.217,271.8395,46.9181,313.1971,2.6108e-05,1.27e-06,0.0,0 STARLINK-3679,1 51973U 22025T   22272.72560896  .00000127  00000-0  26108-4 0  9995,2 51973  53.2170 271.8395 0001908  46.9181 313.1971 15.08839086 31442,6917.8830000000025,95.438,541.068,538.428,0.0
51973.0,STARLINK-3679,PAYLOAD,2022-09-30 09:18:44,15.08814369,0.0002009999999999,53.2168,268.8657,60.4663,299.6529,0.00060874,9.407e-05,0.0,0 STARLINK-3679,1 51973U 22025T   22273.38801053  .00009407  00000-0  60874-3 0  9998,2 51973  53.2168 268.8657 0002010  60.4663 299.6529 15.08814369 31542,6917.959,95.439,541.214,538.433,0.0
51973.0,STARLINK-3679,PAYLOAD,2022-09-30 17:15:38,15.08855301,0.0001934,53.2174,267.3794,50.2202,309.896,0.00020202,2.93e-05,0.0,0 STARLINK-3679,1 51973U 22025T   22273.71919267  .00002930  00000-0  20202-3 0  9997,2 51973  53.2174 267.3794 0001934  50.2202 309.8960 15.08855301 31594,6917.834,95.437,541.0369999999998,538.361,0.0
51973.0,STARLINK-3679,PAYLOAD,2022-10-01 05:58:43,15.08848605,0.000196,53.2165,265.0002,50.7386,309.3779,0.0003105,4.658e-05,0.0,0 STARLINK-3679,1 51973U 22025T   22274.24911943  .00004658  00000-0  31050-3 0  9991,2 51973  53.2165 265.0002 0001960  50.7386 309.3779 15.08848605 32760,6917.854,95.437,541.075,538.363,0.0
51973.0,STARLINK-3679,PAYLOAD,2022-10-01 09:09:30,15.08849907,0.000196,53.2164,264.4054,51.0524,309.0643,0.00031264,4.692e-05,0.0,0 STARLINK-3679,1 51973U 22025T   22274.38159869  .00004692  00000-0  31264-3 0  9992,2 51973  53.2164 264.4054 0001960  51.0524 309.0643 15.08849907 31691,6917.85,95.437,541.071,538.359,0.0
51973.0,STARLINK-3679,PAYLOAD,2022-10-02 05:49:30,15.08844054,0.0001928,53.2172,260.5396,47.50100000000001,312.6145,6.288999999999999e-06,-1.88e-06,0.0,0 STARLINK-3679,1 51973U 22025T   22275.24271581 -.00000188  00000-0  62890-5 0  9992,2 51973  53.2172 260.5396 0001928  47.5010 312.6145 15.08844054 32911,6917.868,95.437,541.067,538.399,0.0
51973.0,STARLINK-3679,PAYLOAD,2022-10-02 09:00:16,15.08846554,0.0001926,53.2181,259.9459,48.8163,311.2995,-3.7552e-05,-8.86e-06,0.0,0 STARLINK-3679,1 51973U 22025T   22275.37519430 -.00000886  00000-0 -37552-4 0  9996,2 51973  53.2181 259.9459 0001926  48.8163 311.2995 15.08846554 31840,6917.86,95.437,541.058,538.393,0.0
51973.0,STARLINK-3679,PAYLOAD,2022-10-03 08:51:03,15.08845685,0.0001875999999999,53.2181,255.4845,44.1441,315.9701,2.9079e-05,1.75e-06,0.0,0 STARLINK-3679,1 51973U 22025T   22276.36879601  .00000175  00000-0  29079-4 0  9999,2 51973  53.2181 255.4845 0001876  44.1441 315.9701 15.08845685 31998,6917.863,95.437,541.026,538.43,0.0
51973.0,STARLINK-3679,PAYLOAD,2022-10-03 15:12:35,15.08856058,0.0001885,53.2182,254.2952,44.8604,315.254,0.00010578,1.396e-05,0.0,0 STARLINK-3679,1 51973U 22025T   22276.63374608  .00001396  00000-0  10578-3 0  9995,2 51973  53.2182 254.2952 0001885  44.8604 315.2540 15.08856058 33120,6917.831,95.437,541.0,538.3919999999998,0.0
51973.0,STARLINK-3679,PAYLOAD,2022-10-04 02:20:17,15.08846749,0.0001715,53.218,252.21400000000003,48.9771,311.1369,0.00021627,3.156e-05,0.0,0 STARLINK-3679,1 51973U 22025T   22277.09742673  .00003156  00000-0  21627-3 0  9990,2 51973  53.2180 252.2140 0001715  48.9771 311.1369 15.08846749 33194,6917.86,95.437,540.911,538.538,0.0
51973.0,STARLINK-3679,PAYLOAD,2022-10-04 07:06:26,15.08852752,0.0001769,53.2178,251.3222,44.5103,315.6031,0.00025459,3.767e-05,0.0,0 STARLINK-3679,1 51973U 22025T   22277.29614219  .00003767  00000-0  25459-3 0  9991,2 51973  53.2178 251.3222 0001769  44.5103 315.6031 15.08852752 32131,6917.840999999999,95.437,540.93,538.4830000000002,0.0
51973.0,STARLINK-3679,PAYLOAD,2022-10-04 15:03:22,15.08845192,0.0001793,53.2174,249.8358,44.8157,315.298,0.00016984,2.416e-05,0.0,0 STARLINK-3679,1 51973U 22025T   22277.62734864  .00002416  00000-0  16984-3 0  9990,2 51973  53.2174 249.8358 0001793  44.8157 315.2980 15.08845192 33273,6917.865,95.437,540.97,538.489,0.0
51973.0,STARLINK-3679,PAYLOAD,2022-10-05 03:46:28,15.08838317,0.0001781,53.2176,247.4571,48.0597,312.0547,-1.1287e-07,-2.9e-06,0.0,0 STARLINK-3679,1 51973U 22025T   22278.15727837 -.00000290  00000-0 -11287-6 0  9995,2 51973  53.2176 247.4571 0001781  48.0597 312.0547 15.08838317 32260,6917.886,95.438,540.9830000000002,538.518,0.0
51973.0,STARLINK-3679,PAYLOAD,2022-10-05 14:54:10,15.08843683,0.0001807,53.2175,245.3757,47.7476,312.3669,2.7878e-06,-2.44e-06,0.0,0 STARLINK-3679,1 51973U 22025T   22278.62095439 -.00000244  00000-0  27878-5 0  9993,2 51973  53.2175 245.3757 0001807  47.7476 312.3669 15.08843683 32331,6917.869000000002,95.437,540.984,538.484,0.0
51973.0,STARLINK-3679,PAYLOAD,2022-10-06 06:48:01,15.08844318,0.000123,53.2167,242.3988,40.4449,319.6635,-6.8687e-05,-1.381e-05,0.0,0 STARLINK-3679,1 51973U 22025T   22279.28335518 -.00001381  00000-0 -68687-4 0  9997,2 51973  53.2167 242.3988 0001230  40.4449 319.6635 15.08844318 32435,6917.8669999999975,95.437,540.5830000000002,538.881,0.0
51973.0,STARLINK-3679,PAYLOAD,2022-10-06 16:20:20,15.08848932,0.0001839,53.218,240.6193,51.7104,308.4054,0.00010311,1.354e-05,0.0,0 STARLINK-3679,1 51973U 22025T   22279.68078883  .00001354  00000-0  10311-3 0  9998,2 51973  53.2180 240.6193 0001839  51.7104 308.4054 15.08848932 32490,6917.853,95.437,540.99,538.446,0.0
51973.0,STARLINK-3679,PAYLOAD,2022-10-07 01:52:39,15.08841587,0.0001823,53.2172,238.8327,51.16,308.9555,0.00012851,1.758e-05,0.0,0 STARLINK-3679,1 51973U 22025T   22280.07823283  .00001758  00000-0  12851-3 0  9994,2 51973  53.2172 238.8327 0001823  51.1600 308.9555 15.08841587 33645,6917.876,95.437,541.002,538.479,0.0
51973.0,STARLINK-3679,PAYLOAD,2022-10-07 06:38:48,15.0884124,0.0001595,53.2178,237.9398,52.3775,307.7362,0.00014077,1.953e-05,0.0,0 STARLINK-3679,1 51973U 22025T   22280.27695209  .00001953  00000-0  14077-3 0  9990,2 51973  53.2178 237.9398 0001595  52.3775 307.7362 15.08841240 32582,6917.877,95.437,540.845,538.638,0.0
51973.0,STARLINK-3679,PAYLOAD,2022-10-07 14:35:43,15.08847188,0.0001766,53.2184,236.4555,51.5201,308.5949,0.00015155,2.125e-05,0.0,0 STARLINK-3679,1 51973U 22025T   22280.60814792  .00002125  00000-0  15155-3 0  9997,2 51973  53.2184 236.4555 0001766  51.5201 308.5949 15.08847188 32636,6917.858,95.437,540.945,538.502,0.0
51973.0,STARLINK-3679,PAYLOAD,2022-10-08 03:18:49,15.08844439,0.000155,53.2179,234.0791,40.3699,319.7408,-6.2542e-05,-1.283e-05,0.0,0 STARLINK-3679,1 51973U 22025T   22281.13807608 -.00001283  00000-0 -62542-4 0  9993,2 51973  53.2179 234.0791 0001550  40.3699 319.7408 15.08844439 33804,6917.8669999999975,95.437,540.804,538.66,0.0
51973.0,STARLINK-3679,PAYLOAD,2022-10-08 06:29:36,15.088278699999998,0.0001709,53.2179,233.4807,50.9094,309.205,4.102e-05,3.65e-06,0.0,0 STARLINK-3679,1 51973U 22025T   22281.27056593  .00000365  00000-0  41020-4 0  9993,2 51973  53.2179 233.4807 0001709  50.9094 309.2050 15.08827870 32735,6917.917,95.438,540.965,538.6,0.0
